NORAD_CAT_ID,OBJECT_NAME,OBJECT_TYPE,EPOCH,MEAN_MOTION,ECCENTRICITY,INCLINATION,RA_OF_ASC_NODE,ARG_OF_PERICENTER,MEAN_ANOMALY,BSTAR,MEAN_MOTION_DOT,MEAN_MOTION_DDOT,TLE_LINE0,TLE_LINE1,TLE_LINE2,SEMIMAJOR_AXIS,PERIOD,APOGEE,PERIGEE,DECAYED
51996.0,STARLINK-3538,PAYLOAD,2024-03-22 03:34:21,15.08872511,0.0001228,53.2184,0.2844,106.0796,254.0332,0.00064718,0.00010036,0.0,0 STARLINK-3538,1 51996U 22025AS  24082.14885847  .00010036  00000-0  64718-3 0  9991,2 51996  53.2184   0.2844 0001228 106.0796 254.0332 15.08872511114110,6917.781,95.435,540.496,538.797,0.0
51996.0,STARLINK-3538,PAYLOAD,2024-03-22 22:38:59,15.08843107,0.0001058,53.2186,356.718,87.5283,272.583,-7.3019e-05,-1.45e-05,0.0,0 STARLINK-3538,1 51996U 22025AS  24082.94374569 -.00001450  00000-0 -73019-4 0  9990,2 51996  53.2186 356.7180 0001058  87.5283 272.5830 15.08843107112710,6917.871,95.437,540.468,539.004,0.0
51996.0,STARLINK-3538,PAYLOAD,2024-03-23 03:25:08,15.08849075,0.0001218,53.2187,355.8244,81.2976,278.8154,6.3816e-05,7.28e-06,0.0,0 STARLINK-3538,1 51996U 22025AS  24083.14246347  .00000728  00000-0  63816-4 0  9994,2 51996  53.2187 355.8244 0001218  81.2976 278.8154 15.08849075114260,6917.853,95.437,540.56,538.875,0.0
51996.0,STARLINK-3538,PAYLOAD,2024-03-23 22:29:45,15.08860234,0.0001187,53.2182,352.2557,88.6756,271.4372,0.00027195,4.045e-05,0.0,0 STARLINK-3538,1 51996U 22025AS  24083.93733385  .00004045  00000-0  27195-3 0  9999,2 51996  53.2182 352.2557 0001187  88.6756 271.4372 15.08860234112860,6917.819,95.436,540.505,538.862,0.0
51996.0,STARLINK-3538,PAYLOAD,2024-03-24 00:05:08,15.0885955,0.0001084,53.2185,351.9564,87.7088,272.4029,0.00029038,4.339e-05,0.0,0 STARLINK-3538,1 51996U 22025AS  24084.00357334  .00004339  00000-0  29038-3 0  9998,2 51996  53.2185 351.9564 0001084  87.7088 272.4029 15.08859550114390,6917.821,95.436,540.436,538.936,0.0
51996.0,STARLINK-3538,PAYLOAD,2024-03-24 11:12:51,15.08832917,0.0001727,53.2187,349.8772,95.8254,264.2935,1.5793e-05,-3.7e-07,0.0,0 STARLINK-3538,1 51996U 22025AS  24084.46726081 -.00000037  00000-0  15793-4 0  9993,2 51996  53.2187 349.8772 0001727  95.8254 264.2935 15.08832917114469,6917.902,95.438,540.962,538.572,0.0
51996.0,STARLINK-3538,PAYLOAD,2024-03-24 22:20:33,15.08857114,0.0001544,53.2192,347.797,78.4691,281.6475,0.00053093,8.176e-05,0.0,0 STARLINK-3538,1 51996U 22025AS  24084.93094110  .00008176  00000-0  53093-3 0  9991,2 51996  53.2192 347.7970 0001544  78.4691 281.6475 15.08857114113019,6917.828,95.436,540.761,538.625,0.0
51996.0,STARLINK-3538,PAYLOAD,2024-03-25 03:06:42,15.08877595,0.0001347,53.2177,346.9023,98.4166,261.6979,0.0013859,0.0002186,0.0,0 STARLINK-3538,1 51996U 22025AS  24085.12965280  .00021860  00000-0  13859-2 0  9998,2 51996  53.2177 346.9023 0001347  98.4166 261.6979 15.08877595114565,6917.765,95.435,540.562,538.699,0.0
51996.0,STARLINK-3538,PAYLOAD,2024-03-25 11:03:38,15.08835475,0.0002061,53.2186,345.4163,82.786,277.3367,0.00046522,7.123e-05,0.0,0 STARLINK-3538,1 51996U 22025AS  24085.46086581  .00007123  00000-0  46522-3 0  9993,2 51996  53.2186 345.4163 0002061  82.7860 277.3367 15.08835475114617,6917.894,95.438,541.185,538.333,0.0
51996.0,STARLINK-3538,PAYLOAD,2024-03-25 22:11:20,15.08839201,0.0001583,53.2182,343.3348,89.6841,270.4333,0.00027094,4.027e-05,0.0,0 STARLINK-3538,1 51996U 22025AS  24085.92454560  .00004027  00000-0  27094-3 0  9993,2 51996  53.2182 343.3348 0001583  89.6841 270.4333 15.08839201113165,6917.883,95.438,540.843,538.653,0.0
51996.0,STARLINK-3538,PAYLOAD,2024-03-25 23:46:43,15.08839834,0.0001628,53.219,343.0376,88.5459,271.572,0.00026838,3.986e-05,0.0,0 STARLINK-3538,1 51996U 22025AS  24085.99078592  .00003986  00000-0  26838-3 0  9995,2 51996  53.2190 343.0376 0001628  88.5459 271.5720 15.08839834113170,6917.881,95.438,540.872,538.62,0.0
51996.0,STARLINK-3538,PAYLOAD,2024-03-26 20:26:45,15.08829257,0.0001823,53.2195,339.1723,107.8287,252.2904,9.9591e-05,1.297e-05,0.0,0 STARLINK-3538,1 51996U 22025AS  24086.85191490  .00001297  00000-0  99591-4 0  9994,2 51996  53.2195 339.1723 0001823 107.8287 252.2904 15.08829257114829,6917.913,95.438,541.039,538.517,0.0
51996.0,STARLINK-3538,PAYLOAD,2024-03-26 22:02:08,15.08830222,0.0001795,53.2191,338.8748,105.8818,254.2372,0.00015517,2.182e-05,0.0,0 STARLINK-3538,1 51996U 22025AS  24086.91815551  .00002182  00000-0  15517-3 0  9991,2 51996  53.2191 338.8748 0001795 105.8818 254.2372 15.08830222113312,6917.91,95.438,541.017,538.534,0.0
51996.0,STARLINK-3538,PAYLOAD,2024-03-27 09:09:50,15.08834748,0.0001457,53.2181,336.795,79.6883,280.4273,0.00040026,6.087e-05,0.0,0 STARLINK-3538,1 51996U 22025AS  24087.38183989  .00006087  00000-0  40026-3 0  9997,2 51996  53.2181 336.7950 0001457  79.6883 280.4273 15.08834748113383,6917.896,95.438,540.769,538.754,0.0
51996.0,STARLINK-3538,PAYLOAD,2024-03-27 21:52:56,15.08839774,0.0001466,53.2186,334.418,85.7576,274.3583,0.00043527,6.646e-05,0.0,0 STARLINK-3538,1 51996U 22025AS  24087.91176158  .00006646  00000-0  43527-3 0  9996,2 51996  53.2186 334.4180 0001466  85.7576 274.3583 15.08839774113464,6917.881,95.438,540.76,538.732,0.0
51996.0,STARLINK-3538,PAYLOAD,2024-03-28 09:00:38,15.08841242,0.0001485,53.2183,332.3355,83.5838,276.5323,0.00039932,6.073e-05,0.0,0 STARLINK-3538,1 51996U 22025AS  24088.37544189  .00006073  00000-0  39932-3 0  9999,2 51996  53.2183 332.3355 0001485  83.5838 276.5323 15.08841242113537,6917.877,95.437,540.769,538.714,0.0
51996.0,STARLINK-3538,PAYLOAD,2024-03-28 20:08:20,15.08841283,0.0001463,53.2179,330.2547,95.1532,264.9628,0.00017426,2.487e-05,0.0,0 STARLINK-3538,1 51996U 22025AS  24088.83912121  .00002487  00000-0  17426-3 0  9994,2 51996  53.2179 330.2547 0001463  95.1532 264.9628 15.08841283115129,6917.876,95.437,540.754,538.729,0.0
51996.0,STARLINK-3538,PAYLOAD,2024-03-28 23:19:06,15.08843363,0.0001396,53.2183,329.6622,100.2124,259.9026,0.00022262,3.257e-05,0.0,0 STARLINK-3538,1 51996U 22025AS  24088.97160024  .00003257  00000-0  22262-3 0  9996,2 51996  53.2183 329.6622 0001396 100.2124 259.9026 15.08843363113620,6917.87,95.437,540.701,538.769,0.0
51996.0,STARLINK-3538,PAYLOAD,2024-03-29 08:51:24,15.08847161,0.0001245,53.2176,327.876,81.994,278.1194,0.00023311,3.425e-05,0.0,0 STARLINK-3538,1 51996U 22025AS  24089.36903832  .00003425  00000-0  23311-3 0  9995,2 51996  53.2176 327.8760 0001245  81.9940 278.1194 15.08847161113684,6917.859,95.437,540.585,538.862,0.0
51996.0,STARLINK-3538,PAYLOAD,2024-03-29 21:34:30,15.0883673,0.0001347,53.218,325.497,83.1143,277.0002,-2.9507e-05,-7.57e-06,0.0,0 STARLINK-3538,1 51996U 22025AS  24089.89896243 -.00000757  00000-0 -29507-4 0  9991,2 51996  53.2180 325.4970 0001347  83.1143 277.0002 15.08836730113763,6917.89,95.438,540.687,538.824,0.0
51996.0,STARLINK-3538,PAYLOAD,2024-03-30 00:45:16,15.08842846,0.0001503,53.2185,324.8999,85.1751,274.9413,7.0999e-05,8.42e-06,0.0,0 STARLINK-3538,1 51996U 22025AS  24090.03144081  .00000842  00000-0  70999-4 0  9999,2 51996  53.2185 324.8999 0001503  85.1751 274.9413 15.08842846115302,6917.872,95.437,540.776,538.697,0.0
51996.0,STARLINK-3538,PAYLOAD,2024-03-30 08:42:12,15.08836914,0.0001405,53.2178,323.4125,104.3151,255.7997,-1.6791e-05,-5.55e-06,0.0,0 STARLINK-3538,1 51996U 22025AS  24090.36264336 -.00000555  00000-0 -16791-4 0  9994,2 51996  53.2178 323.4125 0001405 104.3151 255.7997 15.08836914113838,6917.89,95.438,540.727,538.783,0.0
51996.0,STARLINK-3538,PAYLOAD,2024-03-30 21:25:17,15.08837426,0.0001385,53.218,321.0379,83.8288,276.2862,7.6751e-05,9.34e-06,0.0,0 STARLINK-3538,1 51996U 22025AS  24090.89256666  .00000934  00000-0  76751-4 0  9990,2 51996  53.2180 321.0379 0001385  83.8288 276.2862 15.08837426115431,6917.888,95.438,540.711,538.795,0.0
51996.0,STARLINK-3538,PAYLOAD,2024-03-30 23:00:40,15.08838922,0.0001381,53.2185,320.7397,82.055,278.0599,1.0869e-05,-1.15e-06,0.0,0 STARLINK-3538,1 51996U 22025AS  24090.95880601 -.00000115  00000-0  10869-4 0  9999,2 51996  53.2185 320.7397 0001381  82.0550 278.0599 15.08838922113922,6917.884,95.438,540.704,538.793,0.0
51996.0,STARLINK-3538,PAYLOAD,2024-03-31 14:54:32,15.08838861,0.0001358,53.2193,317.7634,81.6873,278.4273,0.00011643,1.565e-05,0.0,0 STARLINK-3538,1 51996U 22025AS  24091.62120614  .00001565  00000-0  11643-3 0  9994,2 51996  53.2193 317.7634 0001358  81.6873 278.4273 15.08838861114025,6917.884,95.438,540.688,538.809,0.0
51996.0,STARLINK-3538,PAYLOAD,2024-03-31 21:16:04,15.08845707,0.0001308,53.2183,316.5745,81.6748,278.4392,0.00017073,2.431e-05,0.0,0 STARLINK-3538,1 51996U 22025AS  24091.88616045  .00002431  00000-0  17073-3 0  9996,2 51996  53.2183 316.5745 0001308  81.6748 278.4392 15.08845707114063,6917.863,95.437,540.633,538.823,0.0
51996.0,STARLINK-3538,PAYLOAD,2024-04-01 00:26:50,15.08854378,0.0001304,53.2188,315.9795,85.6965,274.4176,0.00013544,1.869e-05,0.0,0 STARLINK-3538,1 51996U 22025AS  24092.01863577  .00001869  00000-0  13544-3 0  9999,2 51996  53.2188 315.9795 0001304  85.6965 274.4176 15.08854378115608,6917.836,95.437,540.604,538.799,0.0
51996.0,STARLINK-3538,PAYLOAD,2024-04-01 08:23:46,15.08845067,0.000106,53.219,314.494,82.9886,277.1227,2.8972e-05,1.73e-06,0.0,0 STARLINK-3538,1 51996U 22025AS  24092.34984238  .00000173  00000-0  28972-4 0  9992,2 51996  53.2190 314.4940 0001060  82.9886 277.1227 15.08845067115655,6917.865,95.437,540.463,538.997,0.0
51996.0,STARLINK-3538,PAYLOAD,2024-04-01 14:45:19,15.08838414,0.0001458,53.2186,313.3037,88.3724,271.7435,0.00012758,1.743e-05,0.0,0 STARLINK-3538,1 51996U 22025AS  24092.61480723  .00001743  00000-0  12758-3 0  9990,2 51996  53.2186 313.3037 0001458  88.3724 271.7435 15.08838414114172,6917.885,95.438,540.759,538.742,0.0
51996.0,STARLINK-3538,PAYLOAD,2024-04-02 00:17:37,15.08845574,0.0001338,53.2175,311.5197,90.1974,269.9171,0.0001658,2.352e-05,0.0,0 STARLINK-3538,1 51996U 22025AS  24093.01224396  .00002352  00000-0  16580-3 0  9991,2 51996  53.2175 311.5197 0001338  90.1974 269.9171 15.08845574114230,6917.863,95.437,540.654,538.803,0.0
